IDEFIX & ARIANE 42P R/B 
1 27422U 02021B   25342.80736641  .00000667  00000+0  27009-3 0  9992
2 27422  98.5780 277.5494 0012927  94.1611 266.1050 14.30946463231025
AQUA                    
1 27424U 02022A   25343.19777035  .00001705  00000+0  35133-3 0  9991
2 27424  98.4033 304.0194 0000953 114.0771 303.0219 14.61794992255515
CZ-4B R/B               
1 27432U 02024C   25343.18130948  .00000109  00000+0  79563-4 0  9990
2 27432  98.9001  31.9652 0049168 280.2196 149.6678 14.14526735216445
MIDORI II (ADEOS-II)    
1 27597U 02056A   25343.14496524  .00000457  00000+0  19765-3 0  9991
2 27597  98.7630 296.0825 0000056  44.1265 315.9920 14.29201774197362
H-2A R/B                
1 27601U 02056E   25342.91270450  .00000547  00000+0  20609-3 0  9998
2 27601  98.3058 301.8219 0071467  72.3660 352.7034 14.33670954201104
CZ-4B R/B               
1 28059U 03049C   25343.01941367  .00000601  00000+0  14936-3 0  9990
2 28059  98.6785 329.4429 0048816 147.2602 213.1635 14.54903688173416
CZ-2C R/B               
1 28222U 04012C   25343.13662925  .00043499  00000+0  64057-3 0  9997
2 28222  97.7423  35.4605 0016673 284.5967  75.3437 15.55147309190163
SL-16 R/B               
1 28353U 04021B   25343.15656201 -.00000187  00000+0 -72651-4 0  9993
2 28353  71.0021  62.4847 0005492 205.7666 154.3184 14.14581640110032
CZ-4B R/B               
1 28415U 04035C   25343.08902170  .00010164  00000+0  37745-3 0  9996
2 28415  97.3611  13.4817 0031745 291.1689  68.6159 15.27276633166076
CZ-2C R/B               
1 28480U 04046B   25343.17249132  .00000290  00000+0  12247-3 0  9991
2 28480  98.1988 258.7721 0140607  62.7757 298.7673 14.26937759 95594
ARIANE 5 R/B            
1 28499U 04049H   25343.01401484  .00001675  00000+0  19183-3 0  9991
2 28499  98.2522 143.1618 0083390 285.2193  73.9811 14.84997550132332
CZ-2D R/B               
1 28738U 05024B   25342.98486534  .00031203  00000+0  50259-3 0  9994
2 28738  97.3633 350.3332 0006048  19.1913 340.9566 15.52880343125675
