CCSDS_OMM_VERS = 2.0
CREATION_DATE  = 
ORIGINATOR     = 

OBJECT_NAME    = IDEFIX & ARIANE 42P R/B
OBJECT_ID      = 2002-021B
CENTER_NAME    = EARTH
REF_FRAME      = TEME
TIME_SYSTEM    = UTC
MEAN_ELEMENT_THEORY = SGP/SGP4

EPOCH          = 2025-12-08T19:22:36.457824
MEAN_MOTION    = 14.30946463
ECCENTRICITY   = .00129273
INCLINATION    = 98.5780
RA_OF_ASC_NODE = 277.5494
ARG_OF_PERICENTER = 94.1611
MEAN_ANOMALY   = 266.1050

EPHEMERIS_TYPE = 0
CLASSIFICATION_TYPE = U
NORAD_CAT_ID   = 27422
ELEMENT_SET_NO = 999
REV_AT_EPOCH   = 23102
BSTAR          = .27008896E-3
MEAN_MOTION_DOT = .667E-5
MEAN_MOTION_DDOT = 0

CCSDS_OMM_VERS = 2.0
CREATION_DATE  = 
ORIGINATOR     = 

OBJECT_NAME    = AQUA
OBJECT_ID      = 2002-022A
CENTER_NAME    = EARTH
REF_FRAME      = TEME
TIME_SYSTEM    = UTC
MEAN_ELEMENT_THEORY = SGP/SGP4

EPOCH          = 2025-12-09T04:44:47.358240
MEAN_MOTION    = 14.61794992
ECCENTRICITY   = .0000953
INCLINATION    = 98.4033
RA_OF_ASC_NODE = 304.0194
ARG_OF_PERICENTER = 114.0771
MEAN_ANOMALY   = 303.0219

EPHEMERIS_TYPE = 0
CLASSIFICATION_TYPE = U
NORAD_CAT_ID   = 27424
ELEMENT_SET_NO = 999
REV_AT_EPOCH   = 25551
BSTAR          = .35133E-3
MEAN_MOTION_DOT = .1705E-4
MEAN_MOTION_DDOT = 0

CCSDS_OMM_VERS = 2.0
CREATION_DATE  = 
ORIGINATOR     = 

OBJECT_NAME    = CZ-4B R/B
OBJECT_ID      = 2002-024C
CENTER_NAME    = EARTH
REF_FRAME      = TEME
TIME_SYSTEM    = UTC
MEAN_ELEMENT_THEORY = SGP/SGP4

EPOCH          = 2025-12-09T04:21:05.139072
MEAN_MOTION    = 14.14526735
ECCENTRICITY   = .0049168
INCLINATION    = 98.9001
RA_OF_ASC_NODE = 31.9652
ARG_OF_PERICENTER = 280.2196
MEAN_ANOMALY   = 149.6678

EPHEMERIS_TYPE = 0
CLASSIFICATION_TYPE = U
NORAD_CAT_ID   = 27432
ELEMENT_SET_NO = 999
REV_AT_EPOCH   = 21644
BSTAR          = .79563E-4
MEAN_MOTION_DOT = .109E-5
MEAN_MOTION_DDOT = 0

CCSDS_OMM_VERS = 2.0
CREATION_DATE  = 
ORIGINATOR     = 

OBJECT_NAME    = MIDORI II (ADEOS-II)
OBJECT_ID      = 2002-056A
CENTER_NAME    = EARTH
REF_FRAME      = TEME
TIME_SYSTEM    = UTC
MEAN_ELEMENT_THEORY = SGP/SGP4

EPOCH          = 2025-12-09T03:28:44.996736
MEAN_MOTION    = 14.29201774
ECCENTRICITY   = .0000056
INCLINATION    = 98.7630
RA_OF_ASC_NODE = 296.0825
ARG_OF_PERICENTER = 44.1265
MEAN_ANOMALY   = 315.9920

EPHEMERIS_TYPE = 0
CLASSIFICATION_TYPE = U
NORAD_CAT_ID   = 27597
ELEMENT_SET_NO = 999
REV_AT_EPOCH   = 19736
BSTAR          = .19765E-3
MEAN_MOTION_DOT = .457E-5
MEAN_MOTION_DDOT = 0

CCSDS_OMM_VERS = 2.0
CREATION_DATE  = 
ORIGINATOR     = 

OBJECT_NAME    = H-2A R/B
OBJECT_ID      = 2002-056E
CENTER_NAME    = EARTH
REF_FRAME      = TEME
TIME_SYSTEM    = UTC
MEAN_ELEMENT_THEORY = SGP/SGP4

EPOCH          = 2025-12-08T21:54:17.668800
MEAN_MOTION    = 14.33670954
ECCENTRICITY   = .0071467
INCLINATION    = 98.3058
RA_OF_ASC_NODE = 301.8219
ARG_OF_PERICENTER = 72.3660
MEAN_ANOMALY   = 352.7034

EPHEMERIS_TYPE = 0
CLASSIFICATION_TYPE = U
NORAD_CAT_ID   = 27601
ELEMENT_SET_NO = 999
REV_AT_EPOCH   = 20110
BSTAR          = .20609E-3
MEAN_MOTION_DOT = .547E-5
MEAN_MOTION_DDOT = 0

CCSDS_OMM_VERS = 2.0
CREATION_DATE  = 
ORIGINATOR     = 

OBJECT_NAME    = CZ-4B R/B
OBJECT_ID      = 2003-049C
CENTER_NAME    = EARTH
REF_FRAME      = TEME
TIME_SYSTEM    = UTC
MEAN_ELEMENT_THEORY = SGP/SGP4

EPOCH          = 2025-12-09T00:27:57.341088
MEAN_MOTION    = 14.54903688
ECCENTRICITY   = .0048816
INCLINATION    = 98.6785
RA_OF_ASC_NODE = 329.4429
ARG_OF_PERICENTER = 147.2602
MEAN_ANOMALY   = 213.1635

EPHEMERIS_TYPE = 0
CLASSIFICATION_TYPE = U
NORAD_CAT_ID   = 28059
ELEMENT_SET_NO = 999
REV_AT_EPOCH   = 17341
BSTAR          = .14936E-3
MEAN_MOTION_DOT = .601E-5
MEAN_MOTION_DDOT = 0

CCSDS_OMM_VERS = 2.0
CREATION_DATE  = 
ORIGINATOR     = 

OBJECT_NAME    = CZ-2C R/B
OBJECT_ID      = 2004-012C
CENTER_NAME    = EARTH
REF_FRAME      = TEME
TIME_SYSTEM    = UTC
MEAN_ELEMENT_THEORY = SGP/SGP4

EPOCH          = 2025-12-09T03:16:44.767200
MEAN_MOTION    = 15.55147309
ECCENTRICITY   = .0016673
INCLINATION    = 97.7423
RA_OF_ASC_NODE = 35.4605
ARG_OF_PERICENTER = 284.5967
MEAN_ANOMALY   = 75.3437

EPHEMERIS_TYPE = 0
CLASSIFICATION_TYPE = U
NORAD_CAT_ID   = 28222
ELEMENT_SET_NO = 999
REV_AT_EPOCH   = 19016
BSTAR          = .64057E-3
MEAN_MOTION_DOT = .43499E-3
MEAN_MOTION_DDOT = 0

CCSDS_OMM_VERS = 2.0
CREATION_DATE  = 
ORIGINATOR     = 

OBJECT_NAME    = SL-16 R/B
OBJECT_ID      = 2004-021B
CENTER_NAME    = EARTH
REF_FRAME      = TEME
TIME_SYSTEM    = UTC
MEAN_ELEMENT_THEORY = SGP/SGP4

EPOCH          = 2025-12-09T03:45:26.957664
MEAN_MOTION    = 14.14581640
ECCENTRICITY   = .0005492
INCLINATION    = 71.0021
RA_OF_ASC_NODE = 62.4847
ARG_OF_PERICENTER = 205.7666
MEAN_ANOMALY   = 154.3184

EPHEMERIS_TYPE = 0
CLASSIFICATION_TYPE = U
NORAD_CAT_ID   = 28353
ELEMENT_SET_NO = 999
REV_AT_EPOCH   = 11003
BSTAR          = -.72651E-4
MEAN_MOTION_DOT = -.187E-5
MEAN_MOTION_DDOT = 0

CCSDS_OMM_VERS = 2.0
CREATION_DATE  = 
ORIGINATOR     = 

OBJECT_NAME    = CZ-4B R/B
OBJECT_ID      = 2004-035C
CENTER_NAME    = EARTH
REF_FRAME      = TEME
TIME_SYSTEM    = UTC
MEAN_ELEMENT_THEORY = SGP/SGP4

EPOCH          = 2025-12-09T02:08:11.474880
MEAN_MOTION    = 15.27276633
ECCENTRICITY   = .0031745
INCLINATION    = 97.3611
RA_OF_ASC_NODE = 13.4817
ARG_OF_PERICENTER = 291.1689
MEAN_ANOMALY   = 68.6159

EPHEMERIS_TYPE = 0
CLASSIFICATION_TYPE = U
NORAD_CAT_ID   = 28415
ELEMENT_SET_NO = 999
REV_AT_EPOCH   = 16607
BSTAR          = .37745E-3
MEAN_MOTION_DOT = .10164E-3
MEAN_MOTION_DDOT = 0

CCSDS_OMM_VERS = 2.0
CREATION_DATE  = 
ORIGINATOR     = 

OBJECT_NAME    = CZ-2C R/B
OBJECT_ID      = 2004-046B
CENTER_NAME    = EARTH
REF_FRAME      = TEME
TIME_SYSTEM    = UTC
MEAN_ELEMENT_THEORY = SGP/SGP4

EPOCH          = 2025-12-09T04:08:23.250048
MEAN_MOTION    = 14.26937759
ECCENTRICITY   = .0140607
INCLINATION    = 98.1988
RA_OF_ASC_NODE = 258.7721
ARG_OF_PERICENTER = 62.7757
MEAN_ANOMALY   = 298.7673

EPHEMERIS_TYPE = 0
CLASSIFICATION_TYPE = U
NORAD_CAT_ID   = 28480
ELEMENT_SET_NO = 999
REV_AT_EPOCH   = 9559
BSTAR          = .12247E-3
MEAN_MOTION_DOT = .29E-5
MEAN_MOTION_DDOT = 0

CCSDS_OMM_VERS = 2.0
CREATION_DATE  = 
ORIGINATOR     = 

OBJECT_NAME    = ARIANE 5 R/B
OBJECT_ID      = 2004-049H
CENTER_NAME    = EARTH
REF_FRAME      = TEME
TIME_SYSTEM    = UTC
MEAN_ELEMENT_THEORY = SGP/SGP4

EPOCH          = 2025-12-09T00:20:10.882176
MEAN_MOTION    = 14.84997550
ECCENTRICITY   = .008339
INCLINATION    = 98.2522
RA_OF_ASC_NODE = 143.1618
ARG_OF_PERICENTER = 285.2193
MEAN_ANOMALY   = 73.9811

EPHEMERIS_TYPE = 0
CLASSIFICATION_TYPE = U
NORAD_CAT_ID   = 28499
ELEMENT_SET_NO = 999
REV_AT_EPOCH   = 13233
BSTAR          = .19183E-3
MEAN_MOTION_DOT = .1675E-4
MEAN_MOTION_DDOT = 0

CCSDS_OMM_VERS = 2.0
CREATION_DATE  = 
ORIGINATOR     = 

OBJECT_NAME    = CZ-2D R/B
OBJECT_ID      = 2005-024B
CENTER_NAME    = EARTH
REF_FRAME      = TEME
TIME_SYSTEM    = UTC
MEAN_ELEMENT_THEORY = SGP/SGP4

EPOCH          = 2025-12-08T23:38:12.365376
MEAN_MOTION    = 15.52880343
ECCENTRICITY   = .0006048
INCLINATION    = 97.3633
RA_OF_ASC_NODE = 350.3332
ARG_OF_PERICENTER = 19.1913
MEAN_ANOMALY   = 340.9566

EPHEMERIS_TYPE = 0
CLASSIFICATION_TYPE = U
NORAD_CAT_ID   = 28738
ELEMENT_SET_NO = 999
REV_AT_EPOCH   = 12567
BSTAR          = .50259E-3
MEAN_MOTION_DOT = .31203E-3
MEAN_MOTION_DDOT = 0

